NORAD_CAT_ID,OBJECT_NAME,OBJECT_TYPE,EPOCH,MEAN_MOTION,ECCENTRICITY,INCLINATION,RA_OF_ASC_NODE,ARG_OF_PERICENTER,MEAN_ANOMALY,BSTAR,MEAN_MOTION_DOT,MEAN_MOTION_DDOT,TLE_LINE0,TLE_LINE1,TLE_LINE2,SEMIMAJOR_AXIS,PERIOD,APOGEE,PERIGEE,DECAYED
51888.0,STARLINK-3536,PAYLOAD,2024-05-07 05:23:05,15.08862388,0.0001711,53.2144,133.4434,79.7984,280.3201,0.0005937,9.179e-05,0.0,0 STARLINK-3536,1 51888U 22022AN  24128.22436584  .00009179  00000-0  59370-3 0  9992,2 51888  53.2144 133.4434 0001711  79.7984 280.3201 15.08862388121882,6917.812,95.436,540.861,538.493,0.0
51888.0,STARLINK-3536,PAYLOAD,2024-05-07 10:09:14,15.08867222,0.0001714,53.2143,132.5514,78.9135,281.2049,0.00063167,9.787e-05,0.0,0 STARLINK-3536,1 51888U 22022AN  24128.42308238  .00009787  00000-0  63167-3 0  9992,2 51888  53.2143 132.5514 0001714  78.9135 281.2049 15.08867222121918,6917.797,95.436,540.848,538.476,0.0
51888.0,STARLINK-3536,PAYLOAD,2024-05-08 05:13:51,15.08849612,0.0001741,53.2141,128.9814,80.7779,279.341,2.2106e-05,6.4e-07,0.0,0 STARLINK-3536,1 51888U 22022AN  24129.21796025  .00000064  00000-0  22106-4 0  9993,2 51888  53.2141 128.9814 0001741  80.7779 279.3410 15.08849612122030,6917.851,95.437,540.92,538.512,0.0
51888.0,STARLINK-3536,PAYLOAD,2024-05-08 10:00:01,15.08849872,0.0001695,53.2143,128.0893,80.0863,280.0321,6.2547e-05,7.08e-06,0.0,0 STARLINK-3536,1 51888U 22022AN  24129.41667999  .00000708  00000-0  62547-4 0  9990,2 51888  53.2143 128.0893 0001695  80.0863 280.0321 15.08849872122066,6917.85,95.437,540.888,538.543,0.0
51888.0,STARLINK-3536,PAYLOAD,2024-05-08 16:21:33,15.08846623,0.0001667,53.2144,126.8999,80.0347,280.0833,1.3859e-05,-6.7e-07,0.0,0 STARLINK-3536,1 51888U 22022AN  24129.68164066 -.00000067  00000-0  13859-4 0  9997,2 51888  53.2144 126.8999 0001667  80.0347 280.0833 15.08846623122100,6917.86,95.437,540.878,538.572,0.0
51888.0,STARLINK-3536,PAYLOAD,2024-05-09 05:04:39,15.08844853,0.0001706,53.2164,124.5213,82.7612,277.3574,-1.9707e-05,-6.02e-06,0.0,0 STARLINK-3536,1 51888U 22022AN  24130.21156357 -.00000602  00000-0 -19707-4 0  9996,2 51888  53.2164 124.5213 0001706  82.7612 277.3574 15.08844853122186,6917.866,95.437,540.911,538.55,0.0
51888.0,STARLINK-3536,PAYLOAD,2024-05-09 06:40:02,15.08846712,0.0001703,53.2168,124.2236,83.988,276.1306,-5.0386e-05,-1.09e-05,0.0,0 STARLINK-3536,1 51888U 22022AN  24130.27780264 -.00001090  00000-0 -50386-4 0  9992,2 51888  53.2168 124.2236 0001703  83.9880 276.1306 15.08846712122196,6917.86,95.437,540.903,538.547,0.0
51888.0,STARLINK-3536,PAYLOAD,2024-05-09 22:33:53,15.08841557,0.0001626,53.2162,121.2516,84.1641,275.9536,6.4868e-05,7.45e-06,0.0,0 STARLINK-3536,1 51888U 22022AN  24130.94020268  .00000745  00000-0  64868-4 0  9991,2 51888  53.2162 121.2516 0001626  84.1641 275.9536 15.08841557122295,6917.876,95.437,540.865,538.616,0.0
51888.0,STARLINK-3536,PAYLOAD,2024-05-10 03:19:59,15.08885111,0.0001242,53.2164,120.3592,84.9165,275.1968,0.00040778,6.216e-05,0.0,0 STARLINK-3536,1 51888U 22022AN  24131.13887771  .00006216  00000-0  40778-3 0  9995,2 51888  53.2164 120.3592 0001242  84.9165 275.1968 15.08885111122323,6917.743,95.435,540.467,538.748,0.0
51888.0,STARLINK-3536,PAYLOAD,2024-05-10 06:30:48,15.08837049,0.0001513,53.2164,119.7647,88.3745,271.742,-1.6233e-05,-5.46e-06,0.0,0 STARLINK-3536,1 51888U 22022AN  24131.27139597 -.00000546  00000-0 -16233-4 0  9998,2 51888  53.2164 119.7647 0001513  88.3745 271.7420 15.08837049122343,6917.889,95.438,540.801,538.708,0.0
51888.0,STARLINK-3536,PAYLOAD,2024-05-10 16:03:08,15.08828403,0.0001332,53.2156,117.9809,90.9796,269.1349,-6.4926e-05,-1.321e-05,0.0,0 STARLINK-3536,1 51888U 22022AN  24131.66884389 -.00001321  00000-0 -64926-4 0  9991,2 51888  53.2156 117.9809 0001332  90.9796 269.1349 15.08828403122400,6917.916,95.438,540.702,538.859,0.0
51888.0,STARLINK-3536,PAYLOAD,2024-05-11 07:56:58,15.0885743,0.0001329,53.216,115.0062,106.8564,253.2574,0.00022804,3.345e-05,0.0,0 STARLINK-3536,1 51888U 22022AN  24132.33123091  .00003345  00000-0  22804-3 0  9996,2 51888  53.2160 115.0062 0001329 106.8564 253.2574 15.08857430122508,6917.827,95.436,540.611,538.773,0.0
51888.0,STARLINK-3536,PAYLOAD,2024-05-11 15:53:53,15.08860808,8.22e-05,53.2165,113.5202,102.4165,257.6919,0.00029244,4.372e-05,0.0,0 STARLINK-3536,1 51888U 22022AN  24132.66241993  .00004372  00000-0  29244-3 0  9990,2 51888  53.2165 113.5202 0000822 102.4165 257.6919 15.08860808122557,6917.817,95.436,540.25,539.113,0.0
51888.0,STARLINK-3536,PAYLOAD,2024-05-12 04:37:01,15.08770524,0.0001489,53.2154,111.1437,75.0223,285.0934,-0.00094819,-0.00015318,0.0,0 STARLINK-3536,1 51888U 22022AN  24133.19237925 -.00015318  00000-0 -94819-3 0  9993,2 51888  53.2154 111.1437 0001489  75.0223 285.0934 15.08770524122635,6918.093,95.442,540.988,538.928,0.0
51888.0,STARLINK-3536,PAYLOAD,2024-05-12 07:47:48,15.08769495,0.000139,53.2155,110.5487,74.1231,285.9914,-0.00064271,-0.00010482,0.0,0 STARLINK-3536,1 51888U 22022AN  24133.32487130 -.00010482  00000-0 -64271-3 0  9999,2 51888  53.2155 110.5487 0001390  74.1231 285.9914 15.08769495122658,6918.096,95.442,540.923,538.999,0.0
51888.0,STARLINK-3536,PAYLOAD,2024-05-12 15:44:45,15.08779606,0.0001536,53.2164,109.0621,73.5157,286.6003,-0.00039747,-6.598e-05,0.0,0 STARLINK-3536,1 51888U 22022AN  24133.65607910 -.00006598  00000-0 -39747-3 0  9998,2 51888  53.2164 109.0621 0001536  73.5157 286.6003 15.08779606122701,6918.065,95.441,540.993,538.867,0.0
51888.0,STARLINK-3536,PAYLOAD,2024-05-13 04:27:48,15.08829897,0.000129,53.2178,106.6794,89.8196,270.2944,-5.8087e-07,-2.97e-06,0.0,0 STARLINK-3536,1 51888U 22022AN  24134.18598298 -.00000297  00000-0 -58087-6 0  9996,2 51888  53.2178 106.6794 0001290  89.8196 270.2944 15.08829897122789,6917.911,95.438,540.669,538.884,0.0
51888.0,STARLINK-3536,PAYLOAD,2024-05-13 21:57:03,15.08837279,0.0001657,53.2165,103.409,78.2818,281.836,0.0003614,5.468e-05,0.0,0 STARLINK-3536,1 51888U 22022AN  24134.91462811  .00005468  00000-0  36140-3 0  9994,2 51888  53.2165 103.4090 0001657  78.2818 281.8360 15.08837279122894,6917.889,95.438,540.9,538.607,0.0
51888.0,STARLINK-3536,PAYLOAD,2024-05-14 04:18:37,15.08827448,0.0001661,53.2164,102.2193,74.7714,285.3462,0.00097837,0.00015312,0.0,0 STARLINK-3536,1 51888U 22022AN  24135.17959566  .00015312  00000-0  97837-3 0  9990,2 51888  53.2164 102.2193 0001661  74.7714 285.3462 15.08827448122939,6917.919,95.438,540.933,538.635,0.0
51888.0,STARLINK-3536,PAYLOAD,2024-05-15 04:09:22,15.0887196,0.0001668,53.216,97.7589,73.5367,286.5808,0.00043844,6.703e-05,0.0,0 STARLINK-3536,1 51888U 22022AN  24136.17317173  .00006703  00000-0  43844-3 0  9996,2 51888  53.2160  97.7589 0001668  73.5367 286.5808 15.08871960123082,6917.783,95.436,540.802,538.494,0.0
51888.0,STARLINK-3536,PAYLOAD,2024-05-15 07:20:08,15.08875571,0.0001671,53.2159,97.1641,73.5332,286.5844,0.00047752,7.327e-05,0.0,0 STARLINK-3536,1 51888U 22022AN  24136.30564822  .00007327  00000-0  47752-3 0  9991,2 51888  53.2159  97.1641 0001671  73.5332 286.5844 15.08875571123104,6917.772,95.435,540.793,538.481,0.0
51888.0,STARLINK-3536,PAYLOAD,2024-05-15 21:38:36,15.08859059,0.000183,53.2163,94.4858,76.5688,283.5508,9.0299e-05,1.15e-05,0.0,0 STARLINK-3536,1 51888U 22022AN  24136.90181019  .00001150  00000-0  90299-4 0  9993,2 51888  53.2163  94.4858 0001830  76.5688 283.5508 15.08859059123199,6917.822,95.436,540.953,538.421,0.0
51888.0,STARLINK-3536,PAYLOAD,2024-05-16 13:32:27,15.08851015,0.0001606,53.2159,91.5139,81.7024,278.415,-1.4358e-05,-5.17e-06,0.0,0 STARLINK-3536,1 51888U 22022AN  24137.56420621 -.00000517  00000-0 -14358-4 0  9991,2 51888  53.2159  91.5139 0001606  81.7024 278.4150 15.08851015123298,6917.847,95.437,540.823,538.601,0.0
51888.0,STARLINK-3536,PAYLOAD,2024-05-17 13:23:13,15.08858922,0.0001464,53.2174,87.0546,87.2573,272.8586,0.00027099,4.03e-05,0.0,0 STARLINK-3536,1 51888U 22022AN  24138.55779605  .00004030  00000-0  27099-3 0  9997,2 51888  53.2174  87.0546 0001464  87.2573 272.8586 15.08858922123441,6917.823,95.436,540.7,538.675,0.0
51888.0,STARLINK-3536,PAYLOAD,2024-05-18 03:41:42,15.08856339,0.0001191,53.2156,84.377,71.3922,288.72,0.0003828,5.812e-05,0.0,0 STARLINK-3536,1 51888U 22022AN  24139.15395916  .00005812  00000-0  38280-3 0  9996,2 51888  53.2156  84.3770 0001191  71.3922 288.7200 15.08856339123538,6917.83,95.437,540.519,538.872,0.0
51888.0,STARLINK-3536,PAYLOAD,2024-05-18 13:14:00,15.08853553,0.000131,53.2155,82.5932,65.638,294.4749,0.00028304,4.221e-05,0.0,0 STARLINK-3536,1 51888U 22022AN  24139.55139833  .00004221  00000-0  28304-3 0  9993,2 51888  53.2155  82.5932 0001310  65.6380 294.4749 15.08853553123597,6917.839,95.437,540.61,538.798,0.0
51888.0,STARLINK-3536,PAYLOAD,2024-05-18 19:35:34,15.0883642,0.0001914,53.2166,81.405,76.3933,283.7272,-6.1635e-05,-1.269e-05,0.0,0 STARLINK-3536,1 51888U 22022AN  24139.81636591 -.00001269  00000-0 -61635-4 0  9991,2 51888  53.2166  81.4050 0001914  76.3933 283.7272 15.08836420123632,6917.891,95.438,541.08,538.432,0.0
51888.0,STARLINK-3536,PAYLOAD,2024-05-19 03:32:29,15.08840851,0.0001136,53.2154,79.9146,76.6042,283.5077,0.00024171,3.561e-05,0.0,0 STARLINK-3536,1 51888U 22022AN  24140.14756047  .00003561  00000-0  24171-3 0  9996,2 51888  53.2154  79.9146 0001136  76.6042 283.5077 15.08840851123686,6917.878,95.438,540.529,538.957,0.0
51888.0,STARLINK-3536,PAYLOAD,2024-05-19 19:26:21,15.08821498,0.0001287,53.2153,76.943,88.3642,271.7498,5.8649e-06,-1.95e-06,0.0,0 STARLINK-3536,1 51888U 22022AN  24140.80997618 -.00000195  00000-0  58649-5 0  9990,2 51888  53.2153  76.9430 0001287  88.3642 271.7498 15.08821498123784,6917.937,95.439,540.692,538.912,0.0
51888.0,STARLINK-3536,PAYLOAD,2024-05-20 04:58:41,15.08831466,0.0001414,53.2155,75.1596,85.4526,274.6628,0.00047611,7.296e-05,0.0,0 STARLINK-3536,1 51888U 22022AN  24141.20742001  .00007296  00000-0  47611-3 0  9992,2 51888  53.2155  75.1596 0001414  85.4526 274.6628 15.08831466123841,6917.906,95.438,540.75,538.793,0.0
